{
  "norad_id": 63780,
  "name": "STARLINK-33846",
  "history": [
    {
      "epoch": "2026-03-28T21:02:26.714976",
      "apogee_km": 483.7854685005914,
      "perigee_km": 482.1766735352994,
      "latitude_deg": 11.944243060310475,
      "longitude_deg": -77.83698335988447,
      "semi_major_axis_km": 6861.118071017945,
      "eccentricity": 0.00011724,
      "inclination_deg": 43.0006,
      "raan_deg": 304.4292,
      "arg_perigee_deg": 270.859,
      "mean_anomaly_deg": 89.2128,
      "mean_motion_rev_day": 15.27602718
    }
  ]
}